STARLINK-37217          
1 68335U 26059Q   26090.66668981 -.00164722  00000+0 -84319-3 0  9995
2 68335  53.1596 252.6285 0000853  88.9874 179.4052 15.80971022  2573
